[{"OBJECT_NAME":"STARLINK-11233 [DTC]","OBJECT_ID":"2024-164M","EPOCH":"2026-03-09T22:08:06.406368","MEAN_MOTION":15.69699558,"ECCENTRICITY":0.00010735,"INCLINATION":53.1592,"RA_OF_ASC_NODE":310.2513,"ARG_OF_PERICENTER":65.8833,"MEAN_ANOMALY":294.2297,"EPHEMERIS_TYPE":0,"CLASSIFICATION_TYPE":"U","NORAD_CAT_ID":61061,"ELEMENT_SET_NO":999,"REV_AT_EPOCH":8545,"BSTAR":1.9783325e-5,"MEAN_MOTION_DOT":1.808e-5,"MEAN_MOTION_DDOT":0},{"OBJECT_NAME":"CZ-2F DEB","OBJECT_ID":"2026-024D","EPOCH":"2026-03-09T22:29:00.721824","MEAN_MOTION":15.26264439,"ECCENTRICITY":0.02293172,"INCLINATION":50.3196,"RA_OF_ASC_NODE":17.4686,"ARG_OF_PERICENTER":280.8979,"MEAN_ANOMALY":76.6257,"EPHEMERIS_TYPE":0,"CLASSIFICATION_TYPE":"U","NORAD_CAT_ID":67692,"ELEMENT_SET_NO":999,"REV_AT_EPOCH":466,"BSTAR":0.0047386771,"MEAN_MOTION_DOT":0.00280979,"MEAN_MOTION_DDOT":0}]
